#cP2017  9  1  0  0  0.00000000     289 d+D   IGS14 FIT AIUB
## 1964 432000.00000000   300.00000000 57997 0.0000000000000
+   82   G01G02G03G04G05G06G07G08G09G10G11G12G13G14G15G16G17
+        G18G19G20G21G22G23G24G25G26G27G28G29G30G31G32R01R02
+        R03R04R05R06R07R08R09R10R11R13R15R16R17R18R19R20R21
+        R22R23R24R26E01E02E03E04E05E07E08E09E11E12E14E18E19
+        E22E24E26E30C06C07C08C09C10C11C12C13C14J01  0  0  0
++         5  5  5  5  5  5  5  5  5  5  5  5  5  5  5  5  5
++         5  5  5  5  5  5  5  5  5  5  5  5  5  5  5  5  5
++         5  5  5  5  5  5  7  5  5  5  5  5  5  5  5  5  5
++         5  5  5  5  5  5  5  5  5  5  5  5  5  5  5  5  5
++         5  5  5  5  5  5  5  5  5  5  5  5  5  6  0  0  0
%c M  cc GPS ccc cccc cccc cccc cccc ccccc ccccc ccccc ccccc
%c cc cc ccc ccc cccc cccc cccc cccc ccccc ccccc ccccc ccccc
%f  1.2500000  1.025000000  0.00000000000  0.000000000000000
%f  0.0000000  0.000000000  0.00000000000  0.000000000000000
%i    0    0    0    0      0      0      0      0         0
%i    0    0    0    0      0      0      0      0         0
/* CODE MGEX orbits and clocks                              
/* of DOY 17244                                             
/*                                                          
/* PCV:IGS14      OL/AL:FES2004  NONE     YN ORB:CoN CLK:CoN
*  2017  9  1 22 25  0.00000000
PG01 -10001.055740  20450.330605 -13579.373327     55.534547
PG02  21313.676653 -14325.034952  -5579.638143    340.286705
PG03    271.178300  15926.964611 -21270.359492    -72.445585
PG04 -14938.683089   3067.056558  21586.018814     19.164655
PG05  19295.801131  -6379.713637  17115.229905    -30.978007
PG06  20136.255433  -1476.465075 -17248.038976    393.806579
PG07   4661.553838  15345.410228  21294.694688    308.115731
PG08  -7387.719289  19943.529700  15894.841464    -72.010219
PG09   7563.263070  25150.503011   3902.861831    435.630670
PG10 -24222.956943 -10731.146958   2709.656277     53.588715
PG11  -8550.485045  24883.280848  -4559.069660   -712.964987
PG12   4926.154908 -13846.239663 -22293.602441    374.129362
PG13  12277.459336 -13756.879757  19018.588010    -90.677482
PG14 -15197.837597  -4769.785386 -20998.955395    -82.511404
PG15   4402.692243 -22374.312511  13118.389655   -355.362663
PG16 -20534.660422   2733.520983  16721.079408     36.931090
PG17  13510.745772  14726.501611 -17209.754126   -159.816850
PG18 -17965.862246 -15524.877434  12675.358658    628.574439
PG19  14965.764025   5456.855747 -21494.136885   -488.283948
PG20   4934.866917 -15092.534096  21142.945415    485.232914
PG21  -9466.924682 -13004.118872  21921.346276   -482.661687
PG22  -9170.904792  13518.837311 -20706.655895   -107.829979
PG23    965.889828  25732.573487  -5239.584161   -216.929937
PG24  11711.885959 -21122.619525 -10845.078884    -39.341219
PG25  -8659.278242 -16783.779492 -18919.075356   -449.073876
PG26 -25196.604726  -2729.602596   8100.382617   -437.369799
PG27 -13150.197392   8514.296163  21352.278781    319.083968
PG28  21397.938300  14577.852695   6526.072921    642.304013
PG29  -3944.381532 -26243.176576   1268.252290    567.925513
PG30  15054.325962   7324.669349  20656.282056    142.792344
PG31 -21551.044077   3467.719117 -15337.733400    178.034209
PG32 -15331.972920 -11309.959322 -18504.123376   -493.222127
PR01   7940.514412  18207.900415 -16007.975143     14.901342
PR02  18915.857758  16936.928351   2224.278944    268.155462
PR03  17545.776000   5216.571777  17786.766991    109.611900
PR04   5565.423217  -9803.818666  22900.022591    229.114745
PR05  -9126.130817 -18570.228608  14907.152014   -157.185664
PR06 -19385.707788 -16324.748887  -3033.969703    116.970044
PR07 -17422.422521  -5030.868985 -17918.890686    -15.278334
PR08  -6070.262743   9323.723608 -22900.896430    -26.766382
PR09 -15799.395373  -5378.921699 -19246.960781     36.674050
PR10 -24706.544878   4855.488312  -3794.804684      9.729272
PR11 -18255.856197  11549.071654  13542.601004     -9.154245
PR13  17215.878291   3956.835699  18395.759633     -2.280906
PR15  20277.614519 -10726.181209 -11045.987495     -0.616472
PR16   1385.414434 -11587.871315 -22687.223437     73.242183
PR17  11890.881825  -5010.493146 -21994.669121     68.209177
PR18  10600.054541 -20363.477300 -11175.038902    164.529739
PR19   3704.392089 -24367.433944   6554.276145    -21.882972
PR20  -6048.089075 -13481.002284  20804.921168   -305.592145
PR21 -11826.066250   5200.947785  21993.198594    132.189825
PR22 -10189.288718  21143.215499   9831.700840     27.131537
PR23  -1863.156205  23735.495297  -9174.776629    105.235573
PR24   6473.481489  13086.974764 -20945.299448   -155.198895
PR26  -6686.863141 -12654.537877  21112.422635     41.488184
PE01 -19625.237698  13893.283120  17257.925167   -151.145052
PE02  19631.688152 -13892.295216 -17254.228132     -8.080798
PE03   8457.772008 -16220.665137  23276.095104     66.239066
PE04   8780.653590  25606.119700 -11961.928678    129.127226
PE05  20745.049390   2678.758837  20948.766862    428.349324
PE07 -20871.846152 -19998.116764  -6349.646189    177.149298
PE08  -9020.977545 -25458.346296  12110.118381   6748.140690
PE09  21045.128715  19845.687010   6318.625130   7028.630350
PE11  11933.037044  13223.970720 -23648.800371   1800.823160
PE12  -1707.837356  26759.805856 -12527.227735   2297.955180
PE14 -11258.307038  13707.155546  15342.503832   6723.411500
PE18  16647.851521 -17305.501093 -21924.313113   6833.206470
PE19  -9771.978289  14677.649894 -23766.767363     13.706714
PE22  14442.924082 -25251.996764  -5452.904529   6579.205950
PE24  22097.584243   8710.703874  17656.952847   5750.292370
PE26 -19024.924924   8361.971169  21076.582505   6889.269350
PE30  -1863.921427 -16029.650590 -24816.737270   6522.402410
PC06  -6879.272691  28298.444751 -30175.371913     -2.973636
PC07 -21646.430253  23491.748812  27453.205590     99.300927
PC08 -19287.306329  37514.580330   2952.787625   -581.339013
PC09   5975.577388  36325.014086 -20165.881771   -896.965957
PC10  -5691.772289  25720.315233  32984.854995    134.810087
PC11  -9332.542644 -20726.644726  16169.602177    517.318929
PC12   2774.605268 -27661.553291  -1584.462498    173.738592
PC13  -8840.337325  39618.170969 -11858.402244    706.875828
PC14 -18913.861288 -19016.648719   7866.341959    854.082926
PJ01 -27080.131783  17508.836128 -22522.027687    -40.417859
EOF
